{
  "type": "FeatureCollection",
  "features": [
    {
      "type": "Feature",
      "properties": {
        "norad_id": 60182,
        "name": "ALOS-4 (DAICHI-4)",
        "group": "resource",
        "lat": -52.35847943491507,
        "lon": -101.9495594701491,
        "alt_km": 638.6227546945438,
        "timestamp": "2025-12-19T16:54:43.908976+00:00",
        "meta_object_name": "ALOS-4 (DAICHI-4)",
        "meta_object_id": "2024-123A",
        "meta_epoch": "2025-12-19T06:07:23.422080",
        "meta_mean_motion": 14.79472318,
        "meta_eccentricity": 0.00013838,
        "meta_inclination": 97.9224,
        "meta_ra_of_asc_node": 88.0094,
        "meta_arg_of_pericenter": 101.7913,
        "meta_mean_anomaly": 258.3454,
        "meta_ephemeris_type": 0,
        "meta_classification_type": "U",
        "meta_norad_cat_id": 60182,
        "meta_element_set_no": 999,
        "meta_rev_at_epoch": 7927,
        "meta_bstar": 0.00020711453,
        "meta_mean_motion_dot": 1.496e-05,
        "meta_mean_motion_ddot": 0,
        "tle_line1": "1 60182U 24123A   25353.25513220  .00001496  00000+0  20711-3 0  9990",
        "tle_line2": "2 60182  97.9224  88.0094 0001383 101.7913 258.3454 14.79472318 79270"
      },
      "geometry": {
        "type": "Point",
        "coordinates": [
          -101.9495594701491,
          -52.35847943491507
        ]
      }
    },
    {
      "type": "Feature",
      "properties": {
        "norad_id": 60452,
        "name": "LEGION 3",
        "group": "resource",
        "lat": 15.940815954441407,
        "lon": 76.18503430859802,
        "alt_km": 514.1598445850459,
        "timestamp": "2025-12-19T16:54:43.908987+00:00",
        "meta_object_name": "LEGION 3",
        "meta_object_id": "2024-146A",
        "meta_epoch": "2025-12-19T05:08:58.669152",
        "meta_mean_motion": 15.15826747,
        "meta_eccentricity": 0.0015578,
        "meta_inclination": 45.0023,
        "meta_ra_of_asc_node": 275.4208,
        "meta_arg_of_pericenter": 233.6094,
        "meta_mean_anomaly": 126.3348,
        "meta_ephemeris_type": 0,
        "meta_classification_type": "U",
        "meta_norad_cat_id": 60452,
        "meta_element_set_no": 999,
        "meta_rev_at_epoch": 7471,
        "meta_bstar": 0.00018927244,
        "meta_mean_motion_dot": 3.424e-05,
        "meta_mean_motion_ddot": 0,
        "tle_line1": "1 60452U 24146A   25353.21456793  .00003424  00000+0  18927-3 0  9991",
        "tle_line2": "2 60452  45.0023 275.4208 0015578 233.6094 126.3348 15.15826747 74716"
      },
      "geometry": {
        "type": "Point",
        "coordinates": [
          76.18503430859802,
          15.940815954441407
        ]
      }
    },
    {
      "type": "Feature",
      "properties": {
        "norad_id": 60453,
        "name": "LEGION 4",
        "group": "resource",
        "lat": 16.97473349945108,
        "lon": 166.80314133948093,
        "alt_km": 521.7869580190618,
        "timestamp": "2025-12-19T16:54:43.908998+00:00",
        "meta_object_name": "LEGION 4",
        "meta_object_id": "2024-146B",
        "meta_epoch": "2025-12-19T03:34:35.526720",
        "meta_mean_motion": 15.15888556,
        "meta_eccentricity": 0.00088759,
        "meta_inclination": 45.0395,
        "meta_ra_of_asc_node": 7.5425,
        "meta_arg_of_pericenter": 345.0798,
        "meta_mean_anomaly": 14.9818,
        "meta_ephemeris_type": 0,
        "meta_classification_type": "U",
        "meta_norad_cat_id": 60453,
        "meta_element_set_no": 999,
        "meta_rev_at_epoch": 7355,
        "meta_bstar": 0.00020403401,
        "meta_mean_motion_dot": 3.712e-05,
        "meta_mean_motion_ddot": 0,
        "tle_line1": "1 60453U 24146B   25353.14902230  .00003712  00000+0  20403-3 0  9998",
        "tle_line2": "2 60453  45.0395   7.5425 0008875 345.0798  14.9818 15.15888556 73556"
      },
      "geometry": {
        "type": "Point",
        "coordinates": [
          166.80314133948093,
          16.97473349945108
        ]
      }
    },
    {
      "type": "Feature",
      "properties": {
        "norad_id": 60989,
        "name": "SENTINEL-2C",
        "group": "resource",
        "lat": -38.64552633012345,
        "lon": -120.83669482479141,
        "alt_km": 795.8949346748304,
        "timestamp": "2025-12-19T16:54:43.909009+00:00",
        "meta_object_name": "SENTINEL-2C",
        "meta_object_id": "2024-157A",
        "meta_epoch": "2025-12-19T04:08:36.032064",
        "meta_mean_motion": 14.30819997,
        "meta_eccentricity": 0.00012209,
        "meta_inclination": 98.5677,
        "meta_ra_of_asc_node": 65.5625,
        "meta_arg_of_pericenter": 96.2932,
        "meta_mean_anomaly": 263.839,
        "meta_ephemeris_type": 0,
        "meta_classification_type": "U",
        "meta_norad_cat_id": 60989,
        "meta_element_set_no": 999,
        "meta_rev_at_epoch": 6724,
        "meta_bstar": 5.9972626e-05,
        "meta_mean_motion_dot": 1.14e-06,
        "meta_mean_motion_ddot": 0,
        "tle_line1": "1 60989U 24157A   25353.17263926  .00000114  00000+0  59973-4 0  9997",
        "tle_line2": "2 60989  98.5677  65.5625 0001220  96.2932 263.8390 14.30819997 67242"
      },
      "geometry": {
        "type": "Point",
        "coordinates": [
          -120.83669482479141,
          -38.64552633012345
        ]
      }
    },
    {
      "type": "Feature",
      "properties": {
        "norad_id": 61735,
        "name": "IONOSFERA-M 1",
        "group": "resource",
        "lat": -74.73369461124638,
        "lon": -102.19390868258216,
        "alt_km": 823.4685903312893,
        "timestamp": "2025-12-19T16:54:43.909020+00:00",
        "meta_object_name": "IONOSFERA-M 1",
        "meta_object_id": "2024-199A",
        "meta_epoch": "2025-12-19T07:08:54.430944",
        "meta_mean_motion": 14.22715372,
        "meta_eccentricity": 6.451e-05,
        "meta_inclination": 98.74,
        "meta_ra_of_asc_node": 223.0957,
        "meta_arg_of_pericenter": 12.6519,
        "meta_mean_anomaly": 347.4675,
        "meta_ephemeris_type": 0,
        "meta_classification_type": "U",
        "meta_norad_cat_id": 61735,
        "meta_element_set_no": 999,
        "meta_rev_at_epoch": 10212,
        "meta_bstar": 3.7982191e-05,
        "meta_mean_motion_dot": 4.1e-07,
        "meta_mean_motion_ddot": 0,
        "tle_line1": "1 61735U 24199A   25353.29785221  .00000041  00000+0  37982-4 0  9998",
        "tle_line2": "2 61735  98.7400 223.0957 0000645  12.6519 347.4675 14.22715372102125"
      },
      "geometry": {
        "type": "Point",
        "coordinates": [
          -102.19390868258216,
          -74.73369461124638
        ]
      }
    },
    {
      "type": "Feature",
      "properties": {
        "norad_id": 61736,
        "name": "IONOSFERA-M 2",
        "group": "resource",
        "lat": 72.38965357490943,
        "lon": 72.4002357398546,
        "alt_km": 807.9075261603593,
        "timestamp": "2025-12-19T16:54:43.909030+00:00",
        "meta_object_name": "IONOSFERA-M 2",
        "meta_object_id": "2024-199B",
        "meta_epoch": "2025-12-19T06:17:30.761376",
        "meta_mean_motion": 14.22717559,
        "meta_eccentricity": 0.00017833,
        "meta_inclination": 98.7399,
        "meta_ra_of_asc_node": 222.9726,
        "meta_arg_of_pericenter": 102.1995,
        "meta_mean_anomaly": 257.9383,
        "meta_ephemeris_type": 0,
        "meta_classification_type": "U",
        "meta_norad_cat_id": 61736,
        "meta_element_set_no": 999,
        "meta_rev_at_epoch": 10524,
        "meta_bstar": 3.5380918e-05,
        "meta_mean_motion_dot": 3.5e-07,
        "meta_mean_motion_ddot": 0,
        "tle_line1": "1 61736U 24199B   25353.26216159  .00000035  00000+0  35381-4 0  9999",
        "tle_line2": "2 61736  98.7399 222.9726 0001783 102.1995 257.9383 14.22717559105248"
      },
      "geometry": {
        "type": "Point",
        "coordinates": [
          72.4002357398546,
          72.38965357490943
        ]
      }
    },
    {
      "type": "Feature",
      "properties": {
        "norad_id": 63772,
        "name": "BIOMASS",
        "group": "resource",
        "lat": -20.461320683567095,
        "lon": -178.35268117176454,
        "alt_km": 674.2977592975667,
        "timestamp": "2025-12-19T16:54:43.909041+00:00",
        "meta_object_name": "BIOMASS",
        "meta_object_id": "2025-090A",
        "meta_epoch": "2025-12-19T05:33:05.616000",
        "meta_mean_motion": 14.67534637,
        "meta_eccentricity": 0.00010737,
        "meta_inclination": 98.07,
        "meta_ra_of_asc_node": 178.1465,
        "meta_arg_of_pericenter": 79.8322,
        "meta_mean_anomaly": 280.3004,
        "meta_ephemeris_type": 0,
        "meta_classification_type": "U",
        "meta_norad_cat_id": 63772,
        "meta_element_set_no": 999,
        "meta_rev_at_epoch": 3429,
        "meta_bstar": 0.00014528732,
        "meta_mean_motion_dot": 7.76e-06,
        "meta_mean_motion_ddot": 0,
        "tle_line1": "1 63772U 25090A   25353.23131500  .00000776  00000+0  14529-3 0  9997",
        "tle_line2": "2 63772  98.0700 178.1465 0001073  79.8322 280.3004 14.67534637 34296"
      },
      "geometry": {
        "type": "Point",
        "coordinates": [
          -178.35268117176454,
          -20.461320683567095
        ]
      }
    }
  ]
}